STARLINK-30069          
1 56834U 23079M   26067.48212902 -.00002416  00000+0 -80472-4 0  9995
2 56834  42.9986 110.4464 0000469 272.6695  87.4103 15.26726881152740
STARLINK-35306          
1 67361U 26003AD  26068.48639970  .00034640  00000+0  12616-2 0  9996
2 67361  42.9965 228.1323 0000413 331.1581  28.9248 15.27601620  8798
