[{"OBJECT_NAME":"STARLINK-30069","OBJECT_ID":"2023-079M","EPOCH":"2026-03-08T11:34:15.947328","MEAN_MOTION":15.26726881,"ECCENTRICITY":4.69e-5,"INCLINATION":42.9986,"RA_OF_ASC_NODE":110.4464,"ARG_OF_PERICENTER":272.6695,"MEAN_ANOMALY":87.4103,"EPHEMERIS_TYPE":0,"CLASSIFICATION_TYPE":"U","NORAD_CAT_ID":56834,"ELEMENT_SET_NO":999,"REV_AT_EPOCH":15274,"BSTAR":-8.0472e-5,"MEAN_MOTION_DOT":-2.416e-5,"MEAN_MOTION_DDOT":0},{"OBJECT_NAME":"STARLINK-35306","OBJECT_ID":"2026-003AD","EPOCH":"2026-03-09T11:40:24.934080","MEAN_MOTION":15.2760162,"ECCENTRICITY":4.133e-5,"INCLINATION":42.9965,"RA_OF_ASC_NODE":228.1323,"ARG_OF_PERICENTER":331.1581,"MEAN_ANOMALY":28.9248,"EPHEMERIS_TYPE":0,"CLASSIFICATION_TYPE":"U","NORAD_CAT_ID":67361,"ELEMENT_SET_NO":999,"REV_AT_EPOCH":879,"BSTAR":0.0012615773,"MEAN_MOTION_DOT":0.0003464,"MEAN_MOTION_DDOT":0}]
